{
  "norad_id": 53608,
  "name": "STARLINK-4647",
  "history": [
    {
      "epoch": "2026-04-15T14:15:49.804416Z",
      "apogee_km": 540.2382149424338,
      "perigee_km": 539.2461910647244,
      "latitude_deg": 8.601352622966624e-06,
      "longitude_deg": 10.926437188760108,
      "height_km": 540.3980046615555,
      "semi_major_axis_km": 6917.879203003579,
      "eccentricity": 7.17e-05,
      "inclination_deg": 53.2172,
      "raan_deg": 68.6381,
      "arg_perigee_deg": 60.9479,
      "mean_anomaly_deg": 299.1585,
      "mean_motion_rev_day": 15.08840388
    },
    {
      "epoch": "2026-04-16T20:28:10.160832Z",
      "apogee_km": 540.7986492823738,
      "perigee_km": 538.7135962951652,
      "latitude_deg": -6.126943663899776e-05,
      "longitude_deg": -89.04633288892377,
      "height_km": 540.6235527333894,
      "semi_major_axis_km": 6917.893122788769,
      "eccentricity": 0.0001507,
      "inclination_deg": 53.2183,
      "raan_deg": 62.9907,
      "arg_perigee_deg": 88.4513,
      "mean_anomaly_deg": 271.6651,
      "mean_motion_rev_day": 15.08835834
    },
    {
      "epoch": "2026-04-17T13:57:24.611040Z",
      "apogee_km": 540.7903862639523,
      "perigee_km": 538.706857472358,
      "latitude_deg": 3.55929890501013e-05,
      "longitude_deg": 4.65435104588036,
      "height_km": 540.6029413749525,
      "semi_major_axis_km": 6917.885621868155,
      "eccentricity": 0.00015059,
      "inclination_deg": 53.2182,
      "raan_deg": 59.7197,
      "arg_perigee_deg": 87.7299,
      "mean_anomaly_deg": 272.3866,
      "mean_motion_rev_day": 15.08838288
    },
    {
      "epoch": "2026-04-18T20:09:43.956576Z",
      "apogee_km": 540.774124125166,
      "perigee_km": 538.6959953584192,
      "latitude_deg": -1.544172561144061e-05,
      "longitude_deg": -95.31708344247588,
      "height_km": 540.6030630029942,
      "semi_major_axis_km": 6917.872059741792,
      "eccentricity": 0.0001502,
      "inclination_deg": 53.2182,
      "raan_deg": 54.0694,
      "arg_perigee_deg": 88.4782,
      "mean_anomaly_deg": 271.6382,
      "mean_motion_rev_day": 15.08842725
    },
    {
      "epoch": "2026-04-19T16:49:44.440320Z",
      "apogee_km": 541.0618036018686,
      "perigee_km": 538.3984247629078,
      "latitude_deg": 2.1276035730444385e-05,
      "longitude_deg": -50.03562798587219,
      "height_km": 540.7543387019962,
      "semi_major_axis_km": 6917.867114182388,
      "eccentricity": 0.0001925,
      "inclination_deg": 53.2189,
      "raan_deg": 50.2016,
      "arg_perigee_deg": 95.5656,
      "mean_anomaly_deg": 264.5556,
      "mean_motion_rev_day": 15.08844343
    },
    {
      "epoch": "2026-04-20T02:22:04.027872Z",
      "apogee_km": 540.7977965839964,
      "perigee_km": 538.722842461977,
      "latitude_deg": 7.641106061236664e-06,
      "longitude_deg": 164.70910294175607,
      "height_km": 540.6903962906584,
      "semi_major_axis_km": 6917.897319522986,
      "eccentricity": 0.00014997,
      "inclination_deg": 53.2181,
      "raan_deg": 48.4197,
      "arg_perigee_deg": 91.9053,
      "mean_anomaly_deg": 268.2111,
      "mean_motion_rev_day": 15.08834461
    },
    {
      "epoch": "2026-04-21T05:23:37.181760Z",
      "apogee_km": 540.9293793755414,
      "perigee_km": 538.5564082143719,
      "latitude_deg": -2.7795148339540217e-05,
      "longitude_deg": 113.15501952202719,
      "height_km": 540.7784246545973,
      "semi_major_axis_km": 6917.879893794957,
      "eccentricity": 0.00017151,
      "inclination_deg": 53.2187,
      "raan_deg": 43.3637,
      "arg_perigee_deg": 96.7846,
      "mean_anomaly_deg": 263.3341,
      "mean_motion_rev_day": 15.08840162
    },
    {
      "epoch": "2026-04-22T11:35:56.702688Z",
      "apogee_km": 540.799472604167,
      "perigee_km": 538.6996173223088,
      "latitude_deg": 1.665465249341198e-05,
      "longitude_deg": 13.183919543516613,
      "height_km": 540.704532436244,
      "semi_major_axis_km": 6917.886544963238,
      "eccentricity": 0.00015177,
      "inclination_deg": 53.2182,
      "raan_deg": 37.7144,
      "arg_perigee_deg": 93.2442,
      "mean_anomaly_deg": 266.8724,
      "mean_motion_rev_day": 15.08837986
    },
    {
      "epoch": "2026-04-23T03:29:48.831648Z",
      "apogee_km": 540.8771786214566,
      "perigee_km": 538.6509980512292,
      "latitude_deg": -2.349585983322222e-06,
      "longitude_deg": 131.09099989476192,
      "height_km": 540.743240007908,
      "semi_major_axis_km": 6917.901088336343,
      "eccentricity": 0.0001609,
      "inclination_deg": 53.2191,
      "raan_deg": 34.7416,
      "arg_perigee_deg": 94.3079,
      "mean_anomaly_deg": 265.8097,
      "mean_motion_rev_day": 15.08833228
    },
    {
      "epoch": "2026-04-24T11:17:30.895008Z",
      "apogee_km": 540.7981138945106,
      "perigee_km": 538.6757101782978,
      "latitude_deg": -2.4940147813384256e-05,
      "longitude_deg": 6.911642183159882,
      "height_km": 540.5444900985287,
      "semi_major_axis_km": 6917.873912036403,
      "eccentricity": 0.0001534,
      "inclination_deg": 53.2192,
      "raan_deg": 28.7933,
      "arg_perigee_deg": 85.2384,
      "mean_anomaly_deg": 274.8783,
      "mean_motion_rev_day": 15.08842119
    },
    {
      "epoch": "2026-04-25T03:11:22.858944Z",
      "apogee_km": 540.8512825109392,
      "perigee_km": 538.6576191318827,
      "latitude_deg": 4.0413088121942056e-05,
      "longitude_deg": 124.81917576448586,
      "height_km": 540.5190179066535,
      "semi_major_axis_km": 6917.89145082141,
      "eccentricity": 0.00015855,
      "inclination_deg": 53.2188,
      "raan_deg": 25.8202,
      "arg_perigee_deg": 83.1414,
      "mean_anomaly_deg": 276.9759,
      "mean_motion_rev_day": 15.08836381
    },
    {
      "epoch": "2026-04-25T23:51:23.258880Z",
      "apogee_km": 540.7143177713242,
      "perigee_km": 538.7442478113107,
      "latitude_deg": 6.268876708297327e-05,
      "longitude_deg": 170.10327147441424,
      "height_km": 540.5944349234214,
      "semi_major_axis_km": 6917.866282791318,
      "eccentricity": 0.00014239,
      "inclination_deg": 53.218,
      "raan_deg": 21.9547,
      "arg_perigee_deg": 88.2243,
      "mean_anomaly_deg": 271.8913,
      "mean_motion_rev_day": 15.08844615
    },
    {
      "epoch": "2026-04-27T20:22:11.447904Z",
      "apogee_km": 540.8406672659003,
      "perigee_km": 538.6629158743144,
      "latitude_deg": -5.529533387984925e-06,
      "longitude_deg": -147.75266539138542,
      "height_km": 540.7865773709337,
      "semi_major_axis_km": 6917.888791570107,
      "eccentricity": 0.0001574,
      "inclination_deg": 53.2186,
      "raan_deg": 13.6277,
      "arg_perigee_deg": 97.3466,
      "mean_anomaly_deg": 262.7705,
      "mean_motion_rev_day": 15.08837251
    },
    {
      "epoch": "2026-04-28T02:43:44.057568Z",
      "apogee_km": 540.8000460389394,
      "perigee_km": 538.706000728861,
      "latitude_deg": -1.7369393744350834e-05,
      "longitude_deg": 115.41019516864962,
      "height_km": 540.7814502485684,
      "semi_major_axis_km": 6917.8900233838995,
      "eccentricity": 0.00015135,
      "inclination_deg": 53.2187,
      "raan_deg": 12.4376,
      "arg_perigee_deg": 97.2857,
      "mean_anomaly_deg": 262.8307,
      "mean_motion_rev_day": 15.08836848
    },
    {
      "epoch": "2026-04-29T20:03:45.521856Z",
      "apogee_km": 540.6825387851777,
      "perigee_km": 538.8064093294142,
      "latitude_deg": 3.8357843244536594e-05,
      "longitude_deg": -154.02648014340622,
      "height_km": 540.6405034504658,
      "semi_major_axis_km": 6917.881474057296,
      "eccentricity": 0.0001356,
      "inclination_deg": 53.2179,
      "raan_deg": 4.7045,
      "arg_perigee_deg": 90.0165,
      "mean_anomaly_deg": 270.0983,
      "mean_motion_rev_day": 15.08839645
    },
    {
      "epoch": "2026-04-30T15:08:23.280864Z",
      "apogee_km": 540.6610858814947,
      "perigee_km": 538.8299223826516,
      "latitude_deg": 4.395534030106323e-06,
      "longitude_deg": -84.53430577628549,
      "height_km": 540.5452101058356,
      "semi_major_axis_km": 6917.882504132073,
      "eccentricity": 0.00013235,
      "inclination_deg": 53.2187,
      "raan_deg": 1.1375,
      "arg_perigee_deg": 83.9688,
      "mean_anomaly_deg": 276.1455,
      "mean_motion_rev_day": 15.08839308
    }
  ]
}